COSMOS 2419 (714)       
1 28915U 05050A   17285.72957822  .00000004  00000-0  00000+0 0  9993
2 28915  65.5545  61.8950 0015772 358.1486 259.4594  2.13106780 91830
COSMOS 2425 (716)       
1 29670U 06062A   17286.39421644  .00000025  00000-0  10000-3 0  9996
2 29670  65.4029 300.8750 0020567 337.7957 121.1440  2.13105072 84057
COSMOS 2426 (717)       
1 29671U 06062B   17285.63952140  .00000025  00000-0  10000-3 0  9993
2 29671  65.4212 300.9935 0018479 174.1762 283.2547  2.13103078 84045
COSMOS 2424 (715)       
1 29672U 06062C   17285.54585847  .00000024  00000-0  10000-3 0  9999
2 29672  65.4058 300.9155 0017825 173.4488  27.1602  2.13101546 84033
COSMOS 2433 (720)       
1 32275U 07052A   17285.67723948  .00000004  00000-0  10000-3 0  9990
2 32275  65.5703  61.6775 0001660 206.8660 253.9440  2.13104821 77553
COSMOS 2432 (719)       
1 32276U 07052B   17285.67163447  .00000004  00000-0  10000-3 0  9993
2 32276  65.5828  61.7518 0009447 340.9761  68.1484  2.13103913 77556
COSMOS 2434 (721)       
1 32393U 07065A   17285.47782744  .00000024  00000-0  00000+0 0  9999
2 32393  65.0199 299.9994 0003215 158.0690  38.7897  2.13103033 76251
COSMOS 2436 (723)       
1 32395U 07065C   17285.77110808  .00000025  00000-0  10000-3 0  9996
2 32395  65.0294 300.0372 0013703 349.4862 121.6448  2.13104413 76193
COSMOS 2443 (725)       
1 33379U 08046B   17286.14285662 -.00000001  00000-0  00000+0 0  9992
2 33379  65.5005  61.0342 0013017 177.6090 178.7346  2.13099390 70421
COSMOS 2456 (730)       
1 36111U 09070A   17286.28441556 -.00000014  00000-0  00000+0 0  9992
2 36111  64.1797 179.5392 0004428 317.0987 310.0606  2.13103063 60930
COSMOS 2457 (733)       
1 36112U 09070B   17285.67758109 -.00000011  00000-0  00000+0 0  9997
2 36112  64.1620 179.4769 0006144 167.1701 122.4777  2.13101849 60921
COSMOS 2458 (734)       
1 36113U 09070C   17286.20121541 -.00000014  00000-0  10000-3 0  9990
2 36113  64.1684 179.4679 0001665   8.1185  11.3196  2.13101952 60943
COSMOS 2459 (731)       
1 36400U 10007A   17285.70633962  .00000001  00000-0  10000-3 0  9995
2 36400  65.4793  60.7681 0025816 356.2143 348.0082  2.13102258 59275
COSMOS 2461 (735)       
1 36401U 10007B   17286.08799137 -.00000001  00000-0  10000-3 0  9996
2 36401  65.4718  60.7325 0008135  81.0622 106.5673  2.13102263 59288
COSMOS 2460 (732)       
1 36402U 10007C   17285.89756400 -.00000000  00000-0  10000-3 0  9990
2 36402  65.4629  60.7095 0002236 118.2425 324.3472  2.13101816 59284
COSMOS 2465 (737)       
1 37138U 10041B   17286.35835635  .00000024  00000-0  00000+0 0  9995
2 37138  64.6160 299.8989 0036402 172.7856  22.5694  2.13097563 55365
COSMOS 2464 (736)       
1 37139U 10041C   17285.55741146  .00000024  00000-0  00000+0 0  9990
2 37139  64.6245 299.9254 0021356   6.4371 119.2149  2.13102784 55342
COSMOS 2471 (701K)      
1 37372U 11009A   17285.67309245  .00000001  00000-0  00000+0 0  9992
2 37372  65.4602  60.6643 0007552 221.3834 187.6389  2.13107684 51554
COSMOS 2474 (742)       
1 37829U 11055A   17286.39872973 -.00000015  00000-0  00000+0 0  9999
2 37829  64.5034 180.1497 0008334 249.1052 325.0061  2.13102016 46939
COSMOS 2476 (744)       
1 37867U 11064A   17286.41325435 -.00000015  00000-0  00000+0 0  9990
2 37867  64.4838 180.2179 0017707 243.0936  28.1278  2.13102042 46286
COSMOS 2477 (745)       
1 37868U 11064B   17286.44909912 -.00000015  00000-0  00000+0 0  9992
2 37868  64.4925 180.2621 0015556 244.4047 233.3838  2.13101958 46247
COSMOS 2475 (743)       
1 37869U 11064C   17285.80970999 -.00000012  00000-0  00000+0 0  9992
2 37869  64.4996 180.2763 0020368 270.5652  33.2219  2.13102297 46238
COSMOS 2485 (747)       
1 39155U 13019A   17286.19294377 -.00000014  00000-0  00000+0 0  9998
2 39155  64.6538 180.2808 0018177 237.8865 269.3127  2.13102150 34751
COSMOS 2492 (754)       
1 39620U 14012A   17286.04377806 -.00000002  00000-0  10000-3 0  9994
2 39620  65.3528  60.6248 0012755 335.3188  91.8249  2.13103481 27700
COSMOS 2500 (755)       
1 40001U 14032A   17286.16848851 -.00000003  00000-0  00000+0 0  9993
2 40001  65.2939  60.6094 0006550 187.3399 198.2885  2.13102882 25928
COSMOS 2501 (702K)      
1 40315U 14075A   17285.55031431  .00000021  00000-0  00000+0 0  9997
2 40315  64.3503 301.2272 0017046 211.7651 224.1837  2.13098687 22313
COSMOS 2514 (751)       
1 41330U 16008A   17286.19611765 -.00000003  00000-0  00000+0 0  9999
2 41330  65.0945  60.7226 0009361 202.4744  24.6322  2.13103437 13082
COSMOS 2516 (753)       
1 41554U 16032A   17286.53883603  .00000023  00000-0  00000+0 0  9995
2 41554  64.5702 300.9880 0014660 224.2580 157.7747  2.13101765 10705
